[{"OBJECT_NAME":"STARLINK-1736","OBJECT_ID":"2020-070BF","EPOCH":"2026-03-09T10:02:57.052032","MEAN_MOTION":15.66676236,"ECCENTRICITY":0.00011151,"INCLINATION":53.042,"RA_OF_ASC_NODE":117.3157,"ARG_OF_PERICENTER":98.6487,"MEAN_ANOMALY":261.4655,"EPHEMERIS_TYPE":0,"CLASSIFICATION_TYPE":"U","NORAD_CAT_ID":46585,"ELEMENT_SET_NO":999,"REV_AT_EPOCH":30031,"BSTAR":0.00089725065,"MEAN_MOTION_DOT":0.00096585,"MEAN_MOTION_DDOT":0},{"OBJECT_NAME":"IRIDIUM 82","OBJECT_ID":"1998-051A","EPOCH":"2026-03-09T17:14:32.931744","MEAN_MOTION":15.58179803,"ECCENTRICITY":0.0047439,"INCLINATION":86.3594,"RA_OF_ASC_NODE":336.9899,"ARG_OF_PERICENTER":358.1791,"MEAN_ANOMALY":1.9292,"EPHEMERIS_TYPE":0,"CLASSIFICATION_TYPE":"U","NORAD_CAT_ID":25467,"ELEMENT_SET_NO":999,"REV_AT_EPOCH":46488,"BSTAR":0.0011204022,"MEAN_MOTION_DOT":0.00089782,"MEAN_MOTION_DDOT":0}]
